{
  "type": "FeatureCollection",
  "features": [
    {
      "type": "Feature",
      "properties": {
        "norad_id": 34141,
        "name": "COSMOS 2251 DEB",
        "group": "cosmos-2251-debris",
        "lat": -33.15073540905043,
        "lon": 3.283268980292138,
        "alt_km": 755.8902096306683,
        "timestamp": "2025-12-20T14:38:02.362913+00:00",
        "meta_object_name": "COSMOS 2251 DEB",
        "meta_object_id": "1993-036LN",
        "meta_epoch": "2025-12-19T12:52:12.958176",
        "meta_mean_motion": 14.49305382,
        "meta_eccentricity": 0.0046639,
        "meta_inclination": 74.011,
        "meta_ra_of_asc_node": 16.093,
        "meta_arg_of_pericenter": 99.961,
        "meta_mean_anomaly": 27.2002,
        "meta_ephemeris_type": 0,
        "meta_classification_type": "U",
        "meta_norad_cat_id": 34141,
        "meta_element_set_no": 999,
        "meta_rev_at_epoch": 87792,
        "meta_bstar": 0.00091343,
        "meta_mean_motion_dot": 3.509e-05,
        "meta_mean_motion_ddot": 0,
        "tle_line1": "1 34141U 93036LN  25353.53626109  .00003509  00000+0  91343-3 0  9993",
        "tle_line2": "2 34141  74.0110  16.0930 0046639  99.9610  27.2002 14.49305382877924"
      },
      "geometry": {
        "type": "Point",
        "coordinates": [
          3.283268980292138,
          -33.15073540905043
        ]
      }
    },
    {
      "type": "Feature",
      "properties": {
        "norad_id": 34270,
        "name": "COSMOS 2251 DEB",
        "group": "cosmos-2251-debris",
        "lat": 11.749591637452136,
        "lon": -65.12015737859103,
        "alt_km": 665.4227804015254,
        "timestamp": "2025-12-20T14:38:02.362923+00:00",
        "meta_object_name": "COSMOS 2251 DEB",
        "meta_object_id": "1993-036LQ",
        "meta_epoch": "2025-12-20T03:06:28.528704",
        "meta_mean_motion": 14.6522222,
        "meta_eccentricity": 0.00478706,
        "meta_inclination": 74.0118,
        "meta_ra_of_asc_node": 292.3861,
        "meta_arg_of_pericenter": 82.9701,
        "meta_mean_anomaly": 277.6908,
        "meta_ephemeris_type": 0,
        "meta_classification_type": "U",
        "meta_norad_cat_id": 34270,
        "meta_element_set_no": 999,
        "meta_rev_at_epoch": 89204,
        "meta_bstar": 0.00048521104,
        "meta_mean_motion_dot": 2.626e-05,
        "meta_mean_motion_ddot": 0,
        "tle_line1": "1 34270U 93036LQ  25354.12949686  .00002626  00000+0  48521-3 0  9999",
        "tle_line2": "2 34270  74.0118 292.3861 0047870  82.9701 277.6908 14.65222220892041"
      },
      "geometry": {
        "type": "Point",
        "coordinates": [
          -65.12015737859103,
          11.749591637452136
        ]
      }
    },
    {
      "type": "Feature",
      "properties": {
        "norad_id": 34271,
        "name": "COSMOS 2251 DEB",
        "group": "cosmos-2251-debris",
        "lat": 57.70522216551175,
        "lon": -22.92808882890934,
        "alt_km": 658.5202922212093,
        "timestamp": "2025-12-20T14:38:02.362933+00:00",
        "meta_object_name": "COSMOS 2251 DEB",
        "meta_object_id": "1993-036LR",
        "meta_epoch": "2025-12-20T00:06:11.728224",
        "meta_mean_motion": 14.70904035,
        "meta_eccentricity": 0.0018445,
        "meta_inclination": 74.0189,
        "meta_ra_of_asc_node": 185.2112,
        "meta_arg_of_pericenter": 238.6917,
        "meta_mean_anomaly": 275.2029,
        "meta_ephemeris_type": 0,
        "meta_classification_type": "U",
        "meta_norad_cat_id": 34271,
        "meta_element_set_no": 999,
        "meta_rev_at_epoch": 88341,
        "meta_bstar": 0.0012216,
        "meta_mean_motion_dot": 7.474e-05,
        "meta_mean_motion_ddot": 0,
        "tle_line1": "1 34271U 93036LR  25354.00430241  .00007474  00000+0  12216-2 0  9996",
        "tle_line2": "2 34271  74.0189 185.2112 0018445 238.6917 275.2029 14.70904035883410"
      },
      "geometry": {
        "type": "Point",
        "coordinates": [
          -22.92808882890934,
          57.70522216551175
        ]
      }
    },
    {
      "type": "Feature",
      "properties": {
        "norad_id": 34273,
        "name": "COSMOS 2251 DEB",
        "group": "cosmos-2251-debris",
        "lat": -44.7023459139543,
        "lon": -91.16324381949458,
        "alt_km": 686.8809538284422,
        "timestamp": "2025-12-20T14:38:02.362943+00:00",
        "meta_object_name": "COSMOS 2251 DEB",
        "meta_object_id": "1993-036LT",
        "meta_epoch": "2025-12-20T05:31:38.098848",
        "meta_mean_motion": 14.61288148,
        "meta_eccentricity": 0.00137065,
        "meta_inclination": 74.0364,
        "meta_ra_of_asc_node": 73.1054,
        "meta_arg_of_pericenter": 199.0057,
        "meta_mean_anomaly": 192.5449,
        "meta_ephemeris_type": 0,
        "meta_classification_type": "U",
        "meta_norad_cat_id": 34273,
        "meta_element_set_no": 999,
        "meta_rev_at_epoch": 88731,
        "meta_bstar": 0.00058812638,
        "meta_mean_motion_dot": 2.878e-05,
        "meta_mean_motion_ddot": 0,
        "tle_line1": "1 34273U 93036LT  25354.23030207  .00002878  00000+0  58813-3 0  9998",
        "tle_line2": "2 34273  74.0364  73.1054 0013706 199.0057 192.5449 14.61288148887317"
      },
      "geometry": {
        "type": "Point",
        "coordinates": [
          -91.16324381949458,
          -44.7023459139543
        ]
      }
    },
    {
      "type": "Feature",
      "properties": {
        "norad_id": 34274,
        "name": "COSMOS 2251 DEB",
        "group": "cosmos-2251-debris",
        "lat": 47.33090014008949,
        "lon": 71.53671784229304,
        "alt_km": 686.5696682657099,
        "timestamp": "2025-12-20T14:38:02.362953+00:00",
        "meta_object_name": "COSMOS 2251 DEB",
        "meta_object_id": "1993-036LU",
        "meta_epoch": "2025-12-19T14:30:34.816032",
        "meta_mean_motion": 14.64857632,
        "meta_eccentricity": 0.0021678,
        "meta_inclination": 74.0044,
        "meta_ra_of_asc_node": 55.3413,
        "meta_arg_of_pericenter": 204.985,
        "meta_mean_anomaly": 306.4654,
        "meta_ephemeris_type": 0,
        "meta_classification_type": "U",
        "meta_norad_cat_id": 34274,
        "meta_element_set_no": 999,
        "meta_rev_at_epoch": 88776,
        "meta_bstar": 0.00070677,
        "meta_mean_motion_dot": 3.759e-05,
        "meta_mean_motion_ddot": 0,
        "tle_line1": "1 34274U 93036LU  25353.60456963  .00003759  00000+0  70677-3 0  9991",
        "tle_line2": "2 34274  74.0044  55.3413 0021678 204.9850 306.4654 14.64857632887764"
      },
      "geometry": {
        "type": "Point",
        "coordinates": [
          71.53671784229304,
          47.33090014008949
        ]
      }
    },
    {
      "type": "Feature",
      "properties": {
        "norad_id": 34276,
        "name": "COSMOS 2251 DEB",
        "group": "cosmos-2251-debris",
        "lat": 44.62375373260011,
        "lon": -126.06510415918878,
        "alt_km": 695.9559071147678,
        "timestamp": "2025-12-20T14:38:02.362963+00:00",
        "meta_object_name": "COSMOS 2251 DEB",
        "meta_object_id": "1993-036LW",
        "meta_epoch": "2025-12-19T15:38:54.573792",
        "meta_mean_motion": 14.57271378,
        "meta_eccentricity": 0.00223658,
        "meta_inclination": 74.024,
        "meta_ra_of_asc_node": 72.179,
        "meta_arg_of_pericenter": 218.3562,
        "meta_mean_anomaly": 292.5145,
        "meta_ephemeris_type": 0,
        "meta_classification_type": "U",
        "meta_norad_cat_id": 34276,
        "meta_element_set_no": 999,
        "meta_rev_at_epoch": 88693,
        "meta_bstar": 0.00049445994,
        "meta_mean_motion_dot": 2.215e-05,
        "meta_mean_motion_ddot": 0,
        "tle_line1": "1 34276U 93036LW  25353.65202053  .00002215  00000+0  49446-3 0  9993",
        "tle_line2": "2 34276  74.0240  72.1790 0022365 218.3562 292.5145 14.57271378886939"
      },
      "geometry": {
        "type": "Point",
        "coordinates": [
          -126.06510415918878,
          44.62375373260011
        ]
      }
    },
    {
      "type": "Feature",
      "properties": {
        "norad_id": 34297,
        "name": "COSMOS 2251 DEB",
        "group": "cosmos-2251-debris",
        "lat": -70.44096729456963,
        "lon": -143.83188271345117,
        "alt_km": 769.4747136153437,
        "timestamp": "2025-12-20T14:38:02.362973+00:00",
        "meta_object_name": "COSMOS 2251 DEB",
        "meta_object_id": "1993-036MT",
        "meta_epoch": "2025-12-20T03:49:37.587648",
        "meta_mean_motion": 14.36635091,
        "meta_eccentricity": 0.00175608,
        "meta_inclination": 74.0487,
        "meta_ra_of_asc_node": 270.608,
        "meta_arg_of_pericenter": 338.0806,
        "meta_mean_anomaly": 135.6716,
        "meta_ephemeris_type": 0,
        "meta_classification_type": "U",
        "meta_norad_cat_id": 34297,
        "meta_element_set_no": 999,
        "meta_rev_at_epoch": 88171,
        "meta_bstar": 9.559435e-05,
        "meta_mean_motion_dot": 2.55e-06,
        "meta_mean_motion_ddot": 0,
        "tle_line1": "1 34297U 93036MT  25354.15946282  .00000255  00000+0  95594-4 0  9999",
        "tle_line2": "2 34297  74.0487 270.6080 0017560 338.0806 135.6716 14.36635091881719"
      },
      "geometry": {
        "type": "Point",
        "coordinates": [
          -143.83188271345117,
          -70.44096729456963
        ]
      }
    }
  ]
}